{
  "norad_id": 53721,
  "name": "STARLINK-4707",
  "history": [
    {
      "epoch": "2026-03-28T11:41:01.014720",
      "apogee_km": 540.4362061841766,
      "perigee_km": 538.9611852571343,
      "latitude_deg": 48.04864322264566,
      "longitude_deg": -41.165539199952036,
      "semi_major_axis_km": 6917.835695720655,
      "eccentricity": 0.00010661,
      "inclination_deg": 53.2182,
      "raan_deg": 169.5736,
      "arg_perigee_deg": 84.0057,
      "mean_anomaly_deg": 276.1057,
      "mean_motion_rev_day": 15.08854622
    }
  ]
}