{"fetched_at":"2026-03-29T02:12:04Z","count":15717,"tles":[{"name":"STARLINK-4707","line1":"1 53721U 22107X   26087.48681730  .00002199  00000+0  15615-3 0  9991","line2":"2 53721  53.2182 169.5736 0001066  84.0057 276.1057 15.08854622197258","category":"Starlink"}]}